[{"OBJECT_NAME":"CELESTIS-17 & SHERPA-FX1","OBJECT_ID":"2021-006CB","EPOCH":"2026-03-09T15:26:05.078112","MEAN_MOTION":15.30994801,"ECCENTRICITY":0.000663,"INCLINATION":97.2397,"RA_OF_ASC_NODE":112.1052,"ARG_OF_PERICENTER":178.1385,"MEAN_ANOMALY":181.9882,"EPHEMERIS_TYPE":0,"CLASSIFICATION_TYPE":"U","NORAD_CAT_ID":47486,"ELEMENT_SET_NO":999,"REV_AT_EPOCH":28406,"BSTAR":0.00024301,"MEAN_MOTION_DOT":7.207e-5,"MEAN_MOTION_DDOT":0},{"OBJECT_NAME":"STARLINK-32422","OBJECT_ID":"2024-187U","EPOCH":"2026-03-09T23:11:53.523744","MEAN_MOTION":15.30194257,"ECCENTRICITY":0.00013505,"INCLINATION":53.1618,"RA_OF_ASC_NODE":48.2807,"ARG_OF_PERICENTER":78.0614,"MEAN_ANOMALY":282.0538,"EPHEMERIS_TYPE":0,"CLASSIFICATION_TYPE":"U","NORAD_CAT_ID":61592,"ELEMENT_SET_NO":999,"REV_AT_EPOCH":7934,"BSTAR":4.7814487e-5,"MEAN_MOTION_DOT":1.057e-5,"MEAN_MOTION_DDOT":0}]
